$$SOE
2461302.500000000, A.D. 2026-Sep-19 00:00:00.0000, -3.375152155214717E+08, 3.470404130703218E+07, 1.166469702958390E+07,
2461309.500000000, A.D. 2026-Sep-26 00:00:00.0000, -3.368150571521977E+08, 2.241630369132391E+07, 1.181280069830030E+07,
2461316.500000000, A.D. 2026-Oct-03 00:00:00.0000, -3.356906440411041E+08, 1.010043638135282E+07, 1.194602342666729E+07,
2461323.500000000, A.D. 2026-Oct-10 00:00:00.0000, -3.341369007378296E+08, -2.228247897595080E+06, 1.206396644136713E+07,
2461330.500000000, A.D. 2026-Oct-17 00:00:00.0000, -3.321492931046507E+08, -1.455394306195548E+07, 1.216624349345381E+07,
2461337.500000000, A.D. 2026-Oct-24 00:00:00.0000, -3.297238711921159E+08, -2.686036370805964E+07, 1.225248259537633E+07,
2461344.500000000, A.D. 2026-Oct-31 00:00:00.0000, -3.268573127601395E+08, -3.913076289204400E+07, 1.232232781293775E+07,
2461351.500000000, A.D. 2026-Nov-07 00:00:00.0000, -3.235469668269287E+08, -5.134795380900306E+07, 1.237544108057886E+07,
2461358.500000000, A.D. 2026-Nov-14 00:00:00.0000, -3.197908967260245E+08, -6.349433469862150E+07, 1.241150408588959E+07,
2461365.500000000, A.D. 2026-Nov-21 00:00:00.0000, -3.155879241236774E+08, -7.555191648836163E+07, 1.243022043517776E+07,
2461372.500000000, A.D. 2026-Nov-28 00:00:00.0000, -3.109376745989476E+08, -8.750235634851049E+07, 1.243131793378861E+07,
2461379.500000000, A.D. 2026-Dec-05 00:00:00.0000, -3.058406207380884E+08, -9.932699794476229E+07, 1.241455058206711E+07,
2461386.500000000, A.D. 2026-Dec-12 00:00:00.0000, -3.002981221094992E+08, -1.110069153592211E+08, 1.237970051120044E+07,
2461393.500000000, A.D. 2026-Dec-19 00:00:00.0000, -2.943124634980158E+08, -1.225229607063021E+08, 1.232658001542414E+07,
2461400.500000000, A.D. 2026-Dec-26 00:00:00.0000, -2.878868910067498E+08, -1.338558162941493E+08, 1.225503360304770E+07,
2461407.500000000, A.D. 2027-Jan-02 00:00:00.0000, -2.810256452024948E+08, -1.449860514441530E+08, 1.216494000416318E+07,
2461414.500000000, A.D. 2027-Jan-09 00:00:00.0000, -2.737339906281278E+08, -1.558941837986842E+08, 1.205621410375755E+07,
2461421.500000000, A.D. 2027-Jan-16 00:00:00.0000, -2.660182410803711E+08, -1.665607448838429E+08, 1.192880877436257E+07,
2461428.500000000, A.D. 2027-Jan-23 00:00:00.0000, -2.578857800452553E+08, -1.769663496662442E+08, 1.178271657637025E+07,
2461435.500000000, A.D. 2027-Jan-30 00:00:00.0000, -2.493450755595989E+08, -1.870917697723948E+08, 1.161797127988613E+07,
2461442.500000000, A.D. 2027-Feb-06 00:00:00.0000, -2.404056885602853E+08, -1.969180095705091E+08, 1.143464917195527E+07,
2461449.500000000, A.D. 2027-Feb-13 00:00:00.0000, -2.310782747099447E+08, -2.064263833521691E+08, 1.123287026654460E+07,
2461456.500000000, A.D. 2027-Feb-20 00:00:00.0000, -2.213745816424019E+08, -2.155985937802663E+08, 1.101279954557118E+07,
2461463.500000000, A.D. 2027-Feb-27 00:00:00.0000, -2.113074398736152E+08, -2.244168141190165E+08, 1.077464781737195E+07,
2461470.500000000, A.D. 2027-Mar-06 00:00:00.0000, -2.008907440754622E+08, -2.328637715643507E+08, 1.051867205164632E+07,
2461477.500000000, A.D. 2027-Mar-13 00:00:00.0000, -1.901394261140698E+08, -2.409228288198333E+08, 1.024517548610383E+07,
2461484.500000000, A.D. 2027-Mar-20 00:00:00.0000, -1.790694208889135E+08, -2.485780639165592E+08, 9.954507524364829E+06,
2461491.500000000, A.D. 2027-Mar-27 00:00:00.0000, -1.676976247963790E+08, -2.558143479671075E+08, 9.647063349955395E+06,
2461498.500000000, A.D. 2027-Apr-03 00:00:00.0000, -1.560418467604824E+08, -2.626174200294359E+08, 9.323283226469845E+06,
2461505.500000000, A.D. 2027-Apr-10 00:00:00.0000, -1.441207520326642E+08, -2.689739581887761E+08, 8.983651477538109E+06,
2461512.500000000, A.D. 2027-Apr-17 00:00:00.0000, -1.319537991160107E+08, -2.748716460241351E+08, 8.628695145629808E+06,
2461519.500000000, A.D. 2027-Apr-24 00:00:00.0000, -1.195611702220083E+08, -2.802992337156733E+08, 8.258982324035332E+06,
2461526.500000000, A.D. 2027-May-01 00:00:00.0000, -1.069636955531677E+08, -2.852465930220705E+08, 7.875120147909820E+06,
2461533.500000000, A.D. 2027-May-08 00:00:00.0000, -9.418277179628450E+07, -2.897047647167066E+08, 7.477752493018016E+06,
2461540.500000000, A.D. 2027-May-15 00:00:00.0000, -8.124027710324527E+07, -2.936659969597836E+08, 7.067557617437363E+06,
2461547.500000000, A.D. 2027-May-22 00:00:00.0000, -6.815848497524445E+07, -2.971237767343425E+08, 6.645245701683566E+06,
2461554.500000000, A.D. 2027-May-29 00:00:00.0000, -5.495997460327286E+07, -3.000728554712105E+08, 6.211555886976972E+06,
2461561.500000000, A.D. 2027-Jun-05 00:00:00.0000, -4.166753773002910E+07, -3.025092655136891E+08, 5.767253017495483E+06,
2461568.500000000, A.D. 2027-Jun-12 00:00:00.0000, -2.830408501016882E+07, -3.044303268956795E+08, 5.313124339532882E+06,
2461575.500000000, A.D. 2027-Jun-19 00:00:00.0000, -1.489255316616827E+07, -3.058346453971002E+08, 4.849976146562472E+06,
2461582.500000000, A.D. 2027-Jun-26 00:00:00.0000, -1.455813603067977E+06, -3.067221022893395E+08, 4.378630359260008E+06,
2461589.500000000, A.D. 2027-Jul-03 00:00:00.0000, 1.198341675082611E+07, -3.070938360327778E+08, 3.899921065318674E+06,
2461596.500000000, A.D. 2027-Jul-10 00:00:00.0000, 2.540266157577752E+07, -3.069522163031479E+08, 3.414691052285045E+06,
2461603.500000000, A.D. 2027-Jul-17 00:00:00.0000, 3.877976753455495E+07, -3.063008108799865E+08, 2.923788362333924E+06,
2461610.500000000, A.D. 2027-Jul-24 00:00:00.0000, 5.209298235590003E+07, -3.051443460471220E+08, 2.428062883870393E+06,
2461617.500000000, A.D. 2027-Jul-31 00:00:00.0000, 6.532102843659955E+07, -3.034886609267726E+08, 1.928362993374005E+06,
2461624.500000000, A.D. 2027-Aug-07 00:00:00.0000, 7.844317125586843E+07, -3.013406553022794E+08, 1.425532388415605E+06,
2461631.500000000, A.D. 2027-Aug-14 00:00:00.0000, 9.143927989853323E+07, -2.987082319215478E+08, 9.204073267275393E+05,
2461638.500000000, A.D. 2027-Aug-21 00:00:00.0000, 1.042898800098427E+08, -2.956002374013379E+08, 4.138139602746814E+05,
2461645.500000000, A.D. 2027-Aug-28 00:00:00.0000, 1.169762024241692E+08, -2.920264012940941E+08, -9.343443487350643E+04,
2461652.500000000, A.D. 2027-Sep-04 00:00:00.0000, 1.294802261970899E+08, -2.879972715756376E+08, -6.005400061474293E+05,
2461659.500000000, A.D. 2027-Sep-11 00:00:00.0000, 1.417847146485533E+08, -2.835241479537032E+08, -1.106722565400362E+06,
2461666.500000000, A.D. 2027-Sep-18 00:00:00.0000, 1.538732446392828E+08, -2.786190143525033E+08, -1.611221581927374E+06,
2461673.500000000, A.D. 2027-Sep-25 00:00:00.0000, 1.657302294753634E+08, -2.732944713139431E+08, -2.113297951711744E+06,
2461680.500000000, A.D. 2027-Oct-02 00:00:00.0000, 1.773409357486216E+08, -2.675636689010677E+08, -2.612235547481716E+06,
2461687.500000000, A.D. 2027-Oct-09 00:00:00.0000, 1.886914944235604E+08, -2.614402406640703E+08, -3.107342555020332E+06,
2461694.500000000, A.D. 2027-Oct-16 00:00:00.0000, 1.997689065697792E+08, -2.549382392172107E+08, -3.597952611755416E+06,
2461701.500000000, A.D. 2027-Oct-23 00:00:00.0000, 2.105610443758536E+08, -2.480720738646836E+08, -4.083425779504582E+06,
2461708.500000000, A.D. 2027-Oct-30 00:00:00.0000, 2.210566482241274E+08, -2.408564500399301E+08, -4.563149344620749E+06,
2461715.500000000, A.D. 2027-Nov-06 00:00:00.0000, 2.312453190822579E+08, -2.333063097456359E+08, -5.036538256886914E+06,
2461722.500000000, A.D. 2027-Nov-13 00:00:00.0000, 2.411175046501551E+08, -2.254367753222612E+08, -5.503035206697926E+06,
2461729.500000000, A.D. 2027-Nov-20 00:00:00.0000, 2.506644825889364E+08, -2.172630989212475E+08, -5.962110798306227E+06,
2461736.500000000, A.D. 2027-Nov-27 00:00:00.0000, 2.598783428706260E+08, -2.088006148575419E+08, -6.413263738401264E+06,
2461743.500000000, A.D. 2027-Dec-04 00:00:00.0000, 2.687519676321838E+08, -2.000646940195030E+08, -6.856020793062150E+06,
2461750.500000000, A.D. 2027-Dec-11 00:00:00.0000, 2.772790083698198E+08, -1.910707013430259E+08, -7.289936554993883E+06,
2461757.500000000, A.D. 2027-Dec-18 00:00:00.0000, 2.854538611165122E+08, -1.818339566855116E+08, -7.714593087667786E+06,
2461764.500000000, A.D. 2027-Dec-25 00:00:00.0000, 2.932716401080141E+08, -1.723696990617768E+08, -8.129599473761089E+06,
2461771.500000000, A.D. 2028-Jan-01 00:00:00.0000, 3.007281503156556E+08, -1.626930541629277E+08, -8.534591282990269E+06,
$$EOE